OBJECT_NAME,OBJECT_ID,EPOCH,MEAN_MOTION,ECCENTRICITY,INCLINATION,RA_OF_ASC_NODE,ARG_OF_PERICENTER,MEAN_ANOMALY,EPHEMERIS_TYPE,CLASSIFICATION_TYPE,NORAD_CAT_ID,ELEMENT_SET_NO,REV_AT_EPOCH,BSTAR,MEAN_MOTION_DOT,MEAN_MOTION_DDOT
STARLINK-35133,2025-200R,2026-07-14T22:00:03.000096,15.33433879,.00019541,97.2840,263.3362,89.9226,58.1504,0,U,65535,999,579,-.45660598E-3,-.14783E-3,0
STARLINK-35044,2025-200S,2026-07-14T22:00:03.000096,15.33451664,.00015924,97.2846,263.3721,89.7887,148.2621,0,U,65536,999,579,-.73751535E-3,-.23816E-3,0
STARLINK-35136,2025-200T,2026-07-14T22:00:03.000096,15.33434097,.00020479,97.2848,263.3599,88.3674,134.7255,0,U,65537,999,578,-.69370027E-3,-.22398E-3,0
STARLINK-35144,2025-200U,2026-07-14T22:00:03.000096,15.33454547,.00020262,97.2846,263.3026,86.7646,346.2223,0,U,65538,999,578,-.37846531E-3,-.12278E-3,0
STARLINK-35110,2025-200V,2026-07-14T22:00:03.000096,15.30212170,.00016322,97.2841,263.3278,79.2729,43.8979,0,U,65539,999,579,.61849381E-1,.1998854E-1,0
STARLINK-35052,2025-200W,2026-07-14T22:03:20.767968,15.22297480,.00033454,97.2838,263.2694,100.2186,259.9428,0,U,65540,999,4820,.38703733E-1,.96589E-2,0
STARLINK-35087,2025-200X,2026-07-14T22:00:03.000096,15.23934274,.00019476,97.2807,263.2403,83.6889,216.6613,0,U,65541,999,564,.14743778E+0,.4048251E-1,0
STARLINK-35100,2025-200Y,2026-07-14T22:00:03.000096,15.33450728,.00017164,97.2849,263.2866,90.0536,298.0011,0,U,65542,999,569,-.27358103E-3,-.8899E-4,0
STARLINK-35105,2025-200Z,2026-07-14T22:00:03.000096,15.28075779,.00018934,97.2845,263.2822,93.0625,291.4189,0,U,65543,999,579,.77620608E-1,.2350853E-1,0
STARLINK-35267,2025-207A,2026-07-14T17:35:22.423488,15.05656806,.00008379,97.2837,261.7677,116.6594,243.4719,0,U,65592,999,4736,.12836967E-3,.1797E-4,0
STARLINK-35269,2025-207B,2026-07-14T18:23:14.069184,15.05658952,.00015022,97.2841,261.8812,111.7893,248.3494,0,U,65593,999,4737,.14667219E-3,.2061E-4,0
STARLINK-35191,2025-207C,2026-07-14T18:47:09.363264,15.05660169,.00016352,97.2850,261.8563,121.5049,238.6338,0,U,65594,999,4721,.164373E-3,.2317E-4,0
STARLINK-35261,2025-207D,2026-07-14T17:59:19.576032,15.05650467,.00014233,97.2821,261.9007,129.5650,230.5703,0,U,65595,999,4738,.11428501E-3,.1593E-4,0
STARLINK-35253,2025-207E,2026-07-14T17:23:24.837792,15.05659657,.00016431,97.2856,261.7827,108.9872,251.1534,0,U,65596,999,4716,.18465318E-3,.261E-4,0
STARLINK-35263,2025-207F,2026-07-14T18:35:11.678208,15.05659343,.00017223,97.2842,261.8703,105.2113,254.9305,0,U,65597,999,4738,.14571801E-3,.2047E-4,0
STARLINK-35248,2025-207G,2026-07-14T18:11:17.255040,15.05646699,.00016408,97.2823,261.8921,118.5246,241.6147,0,U,65598,999,4738,-.63420416E-4,-.971E-5,0
STARLINK-35245,2025-207H,2026-07-14T17:47:21.020928,15.05658536,.00008306,97.2824,261.9137,122.0968,238.0340,0,U,65599,999,4738,.14274145E-3,.2004E-4,0
STARLINK-35229,2025-207J,2026-07-14T19:07:05.187648,15.05658915,.00013147,97.2837,261.8352,105.6999,254.4373,0,U,65600,999,4738,.15746199E-3,.2217E-4,0
STARLINK-35234,2025-207K,2026-07-14T17:19:25.438080,15.05659984,.00013958,97.2854,261.7875,153.9109,206.2189,0,U,65601,999,4737,.15818643E-3,.2227E-4,0
STARLINK-35255,2025-207L,2026-07-14T23:18:18.533376,15.05658696,.00017879,97.2840,262.0625,125.2873,234.8522,0,U,65602,999,4741,.14704941E-3,.2066E-4,0
STARLINK-35250,2025-207M,2026-07-14T18:07:17.381856,15.05651954,.00011318,97.2825,261.8948,111.4481,248.6867,0,U,65603,999,4738,-.25794371E-4,-.428E-5,0
STARLINK-35251,2025-207N,2026-07-14T18:39:10.697760,15.05659412,.00021129,97.2843,261.8661,161.6474,198.4830,0,U,65604,999,4738,.14983293E-3,.2107E-4,0
STARLINK-35171,2025-207P,2026-07-14T18:19:14.828448,15.05662988,.00009849,97.2835,261.8839,98.9520,261.1819,0,U,65605,999,4722,.13160706E-3,.1844E-4,0
STARLINK-35195,2025-207Q,2026-07-14T17:43:21.979776,15.05658226,.00006122,97.2825,261.9175,105.6900,254.4396,0,U,65606,999,4738,.1070872E-3,.149E-4,0
STARLINK-35156,2025-207R,2026-07-14T17:51:19.947168,15.05658713,.00013871,97.2797,261.9099,60.1286,300.0079,0,U,65607,999,4738,.34916377E-3,.4986E-4,0
STARLINK-35185,2025-207S,2026-07-14T18:27:13.167360,15.05656625,.00012295,97.2843,261.8777,129.3305,230.8032,0,U,65608,999,4738,.78419989E-4,.1076E-4,0
STARLINK-35053,2025-207T,2026-07-14T18:03:18.090144,15.05658779,.00014992,97.2820,261.8982,127.4824,232.6540,0,U,65609,999,4722,.1503328E-3,.2114E-4,0
STARLINK-35178,2025-207U,2026-07-14T21:54:34.341408,15.05672728,.00017747,97.2846,261.9877,96.1108,264.0322,0,U,65610,999,4740,.18918446E-3,.2676E-4,0
STARLINK-35186,2025-207V,2026-07-14T17:39:21.672864,15.05656702,.00013288,97.2834,261.7675,159.7951,200.3329,0,U,65611,999,4737,.11525747E-3,.1607E-4,0
STARLINK-35154,2025-207W,2026-07-14T17:55:19.319232,15.05659266,.00007296,97.2830,261.9059,146.2507,213.8767,0,U,65612,999,4722,.17814117E-3,.2516E-4,0
