STARLINK-35133          
1 65535U 25200R   26195.91670139 -.00014783  00000+0 -45661-3 0  9991
2 65535  97.2840 263.3362 0001954  89.9226  58.1504 15.33433879  5796
STARLINK-35044          
1 65536U 25200S   26195.91670139 -.00023816  00000+0 -73752-3 0  9991
2 65536  97.2846 263.3721 0001592  89.7887 148.2621 15.33451664  5794
STARLINK-35136          
1 65537U 25200T   26195.91670139 -.00022398  00000+0 -69370-3 0  9997
2 65537  97.2848 263.3599 0002047  88.3674 134.7255 15.33434097  5788
STARLINK-35144          
1 65538U 25200U   26195.91670139 -.00012278  00000+0 -37847-3 0  9998
2 65538  97.2846 263.3026 0002026  86.7646 346.2223 15.33454547  5787
STARLINK-35110          
1 65539U 25200V   26195.91670139  .01998854  00000+0  61849-1 0  9998
2 65539  97.2841 263.3278 0001632  79.2729  43.8979 15.30212170  5793
STARLINK-35052          
1 65540U 25200W   26195.91899037  .00965890  00000+0  38704-1 0  9997
2 65540  97.2838 263.2694 0003345 100.2186 259.9428 15.22297480 48207
STARLINK-35087          
1 65541U 25200X   26195.91670139  .04048251  00000+0  14744+0 0  9991
2 65541  97.2807 263.2403 0001947  83.6889 216.6613 15.23934274  5649
STARLINK-35100          
1 65542U 25200Y   26195.91670139 -.00008899  00000+0 -27358-3 0  9993
2 65542  97.2849 263.2866 0001716  90.0536 298.0011 15.33450728  5693
STARLINK-35105          
1 65543U 25200Z   26195.91670139  .02350853  00000+0  77621-1 0  9990
2 65543  97.2845 263.2822 0001893  93.0625 291.4189 15.28075779  5797
STARLINK-35267          
1 65592U 25207A   26195.73289842  .00001797  00000+0  12837-3 0  9996
2 65592  97.2837 261.7677 0000837 116.6594 243.4719 15.05656806 47363
STARLINK-35269          
1 65593U 25207B   26195.76613506  .00002061  00000+0  14667-3 0  9996
2 65593  97.2841 261.8812 0001502 111.7893 248.3494 15.05658952 47378
STARLINK-35191          
1 65594U 25207C   26195.78274726  .00002317  00000+0  16437-3 0  9997
2 65594  97.2850 261.8563 0001635 121.5049 238.6338 15.05660169 47216
STARLINK-35261          
1 65595U 25207D   26195.74953213  .00001593  00000+0  11429-3 0  9990
2 65595  97.2821 261.9007 0001423 129.5650 230.5703 15.05650467 47385
STARLINK-35253          
1 65596U 25207E   26195.72459303  .00002610  00000+0  18465-3 0  9998
2 65596  97.2856 261.7827 0001643 108.9872 251.1534 15.05659657 47160
STARLINK-35263          
1 65597U 25207F   26195.77444072  .00002047  00000+0  14572-3 0  9990
2 65597  97.2842 261.8703 0001722 105.2113 254.9305 15.05659343 47389
STARLINK-35248          
1 65598U 25207G   26195.75783860 -.00000971  00000+0 -63420-4 0  9993
2 65598  97.2823 261.8921 0001640 118.5246 241.6147 15.05646699 47381
STARLINK-35245          
1 65599U 25207H   26195.74121552  .00002004  00000+0  14274-3 0  9996
2 65599  97.2824 261.9137 0000830 122.0968 238.0340 15.05658536 47382
STARLINK-35229          
1 65600U 25207J   26195.79658782  .00002217  00000+0  15746-3 0  9995
2 65600  97.2837 261.8352 0001314 105.6999 254.4373 15.05658915 47385
STARLINK-35234          
1 65601U 25207K   26195.72182220  .00002227  00000+0  15819-3 0  9990
2 65601  97.2854 261.7875 0001395 153.9109 206.2189 15.05659984 47378
STARLINK-35255          
1 65602U 25207L   26195.97104784  .00002066  00000+0  14705-3 0  9991
2 65602  97.2840 262.0625 0001787 125.2873 234.8522 15.05658696 47418
STARLINK-35250          
1 65603U 25207M   26195.75506229 -.00000428  00000+0 -25794-4 0  9991
2 65603  97.2825 261.8948 0001131 111.4481 248.6867 15.05651954 47383
STARLINK-35251          
1 65604U 25207N   26195.77720715  .00002107  00000+0  14983-3 0  9993
2 65604  97.2843 261.8661 0002112 161.6474 198.4830 15.05659412 47384
STARLINK-35171          
1 65605U 25207P   26195.76336607  .00001844  00000+0  13161-3 0  9990
2 65605  97.2835 261.8839 0000984  98.9520 261.1819 15.05662988 47222
STARLINK-35195          
1 65606U 25207Q   26195.73844884  .00001490  00000+0  10709-3 0  9991
2 65606  97.2825 261.9175 0000612 105.6900 254.4396 15.05658226 47384
STARLINK-35156          
1 65607U 25207R   26195.74398087  .00004986  00000+0  34916-3 0  9991
2 65607  97.2797 261.9099 0001387  60.1286 300.0079 15.05658713 47387
STARLINK-35185          
1 65608U 25207S   26195.76890240  .00001076  00000+0  78420-4 0  9998
2 65608  97.2843 261.8777 0001229 129.3305 230.8032 15.05656625 47386
STARLINK-35053          
1 65609U 25207T   26195.75229271  .00002114  00000+0  15033-3 0  9992
2 65609  97.2820 261.8982 0001499 127.4824 232.6540 15.05658779 47223
STARLINK-35178          
1 65610U 25207U   26195.91289747  .00002676  00000+0  18918-3 0  9994
2 65610  97.2846 261.9877 0001774  96.1108 264.0322 15.05672728 47407
STARLINK-35186          
1 65611U 25207V   26195.73566751  .00001607  00000+0  11526-3 0  9999
2 65611  97.2834 261.7675 0001328 159.7951 200.3329 15.05656702 47376
STARLINK-35154          
1 65612U 25207W   26195.74675138  .00002516  00000+0  17814-3 0  9997
2 65612  97.2830 261.9059 0000729 146.2507 213.8767 15.05659266 47220
